MESON-1                 
1 59131U 24043AK  26068.90019075  .00008544  00000+0  29748-3 0  9998
2 59131  97.5469 205.2839 0009545 227.1432 132.9007 15.29893494111890
STARLINK-31485          
1 59308U 24056N   26067.52828034  .00000170  00000+0  15701-4 0  9990
2 59308  43.0014 237.5287 0001410 254.6385 105.4310 15.27580311110977
